{"type":"FeatureCollection","features":[{"type":"Feature","properties":{"bus":"1","source_id":"822914324-0"},"geometry":{"type":"LineString","coordinates":[[81.722769,16.516744],[81.7224944,16.5169306]]}},{"type":"Feature","properties":{"bus":"1","source_id":"822914324-1"},"geometry":{"type":"LineString","coordinates":[[81.7224944,16.5169306],[81.722451,16.5169484]]}},{"type":"Feature","properties":{"bus":"1","source_id":"822914324-2"},"geometry":{"type":"LineString","coordinates":[[81.722451,16.5169484],[81.7223668,16.5169829]]}},{"type":"Feature","properties":{"bus":"1","source_id":"822914324-3"},"geometry":{"type":"LineString","coordinates":[[81.7223668,16.5169829],[81.7220864,16.5170977]]}},{"type":"Feature","properties":{"bus":"1","source_id":"822914324-4"},"geometry":{"type":"LineString","coordinates":[[81.7220864,16.5170977],[81.7218284,16.5172034]]}},{"type":"Feature","properties":{"bus":"1","source_id":"822914324-5"},"geometry":{"type":"LineString","coordinates":[[81.7218284,16.5172034],[81.7216728,16.5172672]]}},{"type":"Feature","properties":{"bus":"1","source_id":"822914324-6"},"geometry":{"type":"LineString","coordinates":[[81.7216728,16.5172672],[81.7215174,16.5173309]]}},{"type":"Feature","properties":{"bus":"1","source_id":"822914324-7"},"geometry":{"type":"LineString","coordinates":[[81.7215174,16.5173309],[81.7212594,16.5174366]]}},{"type":"Feature","properties":{"bus":"1","source_id":"822914324-8"},"geometry":{"type":"LineString","coordinates":[[81.7212594,16.5174366],[81.721158,16.5174781]]}},{"type":"Feature","properties":{"bus":"1","source_id":"822914324-9"},"geometry":{"type":"LineString","coordinates":[[81.721158,16.5174781],[81.7205349,16.5177333]]}},{"type":"Feature","properties":{"bus":"1","source_id":"822914324-10"},"geometry":{"type":"LineString","coordinates":[[81.7205349,16.5177333],[81.7200712,16.5179231]]}},{"type":"Feature","properties":{"bus":"1","source_id":"822914324-11"},"geometry":{"type":"LineString","coordinates":[[81.7200712,16.5179231],[81.7198826,16.5179504]]}},{"type":"Feature","properties":{"bus":"1","source_id":"822914324-12"},"geometry":{"type":"LineString","coordinates":[[81.7198826,16.5179504],[81.7196278,16.5179873]]}},{"type":"Feature","properties":{"bus":"1","source_id":"822914324-13"},"geometry":{"type":"LineString","coordinates":[[81.7196278,16.5179873],[81.719396,16.5180192]]}},{"type":"Feature","properties":{"bus":"1","source_id":"822914324-14"},"geometry":{"type":"LineString","coordinates":[[81.719396,16.5180192],[81.7193445,16.5180263]]}},{"type":"Feature","properties":{"bus":"1","source_id":"822914324-15"},"geometry":{"type":"LineString","coordinates":[[81.7193445,16.5180263],[81.7192103,16.5180327]]}},{"type":"Feature","properties":{"bus":"1","source_id":"822914324-16"},"geometry":{"type":"LineString","coordinates":[[81.7192103,16.5180327],[81.7189676,16.5180443]]}},{"type":"Feature","properties":{"bus":"1","source_id":"822914324-17"},"geometry":{"type":"LineString","coordinates":[[81.7189676,16.5180443],[81.7183668,16.5180134]]}},{"type":"Feature","properties":{"bus":"1","source_id":"822914324-18"},"geometry":{"type":"LineString","coordinates":[[81.7183668,16.5180134],[81.718124,16.5180152]]}},{"type":"Feature","properties":{"bus":"1","source_id":"822914324-19"},"geometry":{"type":"LineString","coordinates":[[81.718124,16.5180152],[81.7179699,16.518052]]}},{"type":"Feature","properties":{"bus":"1","source_id":"822914324-20"},"geometry":{"type":"LineString","coordinates":[[81.7179699,16.518052],[81.7179158,16.5180721]]}},{"type":"Feature","properties":{"bus":"1","source_id":"822914324-21"},"geometry":{"type":"LineString","coordinates":[[81.7179158,16.5180721],[81.7176051,16.5181878]]}},{"type":"Feature","properties":{"bus":"1","source_id":"822914324-22"},"geometry":{"type":"LineString","coordinates":[[81.7176051,16.5181878],[81.7174778,16.5182486]]}},{"type":"Feature","properties":{"bus":"1","source_id":"822914324-23"},"geometry":{"type":"LineString","coordinates":[[81.7174778,16.5182486],[81.71734,16.5183064]]}},{"type":"Feature","properties":{"bus":"1","source_id":"822914324-24"},"geometry":{"type":"LineString","coordinates":[[81.71734,16.5183064],[81.7171428,16.5183891]]}},{"type":"Feature","properties":{"bus":"1","source_id":"822914324-25"},"geometry":{"type":"LineString","coordinates":[[81.7171428,16.5183891],[81.7165025,16.5187168]]}},{"type":"Feature","properties":{"bus":"1","source_id":"822914324-26"},"geometry":{"type":"LineString","coordinates":[[81.7165025,16.5187168],[81.7160236,16.5189619]]}},{"type":"Feature","properties":{"bus":"1","source_id":"822914324-27"},"geometry":{"type":"LineString","coordinates":[[81.7160236,16.5189619],[81.7155656,16.5191875]]}},{"type":"Feature","properties":{"bus":"1","source_id":"822914324-28"},"geometry":{"type":"LineString","coordinates":[[81.7155656,16.5191875],[81.7148984,16.5195398]]}},{"type":"Feature","properties":{"bus":"1","source_id":"822914324-29"},"geometry":{"type":"LineString","coordinates":[[81.7148984,16.5195398],[81.7145994,16.5196793]]}},{"type":"Feature","properties":{"bus":"1","source_id":"822914324-31"},"geometry":{"type":"LineString","coordinates":[[81.7143707,16.5197706],[81.7142366,16.5198163]]}},{"type":"Feature","properties":{"bus":"1","source_id":"822914324-32"},"geometry":{"type":"LineString","coordinates":[[81.7142366,16.5198163],[81.7140696,16.5198722]]}},{"type":"Feature","properties":{"bus":"1","source_id":"822914324-30"},"geometry":{"type":"LineString","coordinates":[[81.7145994,16.5196793],[81.7143707,16.5197706]]}},{"type":"Feature","properties":{"bus":"1","source_id":"822914324-33"},"geometry":{"type":"LineString","coordinates":[[81.7140696,16.5198722],[81.7131697,16.5200168]]}},{"type":"Feature","properties":{"bus":"1","source_id":"822914324-34"},"geometry":{"type":"LineString","coordinates":[[81.7131697,16.5200168],[81.7127788,16.520083]]}},{"type":"Feature","properties":{"bus":"1","source_id":"822914324-36"},"geometry":{"type":"LineString","coordinates":[[81.7127278,16.5200747],[81.7126628,16.5200631]]}},{"type":"Feature","properties":{"bus":"1","source_id":"822914324-35"},"geometry":{"type":"LineString","coordinates":[[81.7127788,16.520083],[81.7127278,16.5200747]]}},{"type":"Feature","properties":{"bus":"1","source_id":"822914324-37"},"geometry":{"type":"LineString","coordinates":[[81.7126628,16.5200631],[81.712638,16.520049]]}},{"type":"Feature","properties":{"bus":"1","source_id":"822914324-38"},"geometry":{"type":"LineString","coordinates":[[81.712638,16.520049],[81.7126045,16.5200245]]}},{"type":"Feature","properties":{"bus":"1","source_id":"822914324-39"},"geometry":{"type":"LineString","coordinates":[[81.7126045,16.5200245],[81.7125636,16.5199744]]}},{"type":"Feature","properties":{"bus":"1","source_id":"822914324-40"},"geometry":{"type":"LineString","coordinates":[[81.7125636,16.5199744],[81.7124824,16.5198233]]}},{"type":"Feature","properties":{"bus":"1","source_id":"822914324-41"},"geometry":{"type":"LineString","coordinates":[[81.7124824,16.5198233],[81.7124053,16.5196143]]}},{"type":"Feature","properties":{"bus":"1","source_id":"822914324-42"},"geometry":{"type":"LineString","coordinates":[[81.7124053,16.5196143],[81.7123423,16.5194447]]}},{"type":"Feature","properties":{"bus":"1","source_id":"822914324-43"},"geometry":{"type":"LineString","coordinates":[[81.7123423,16.5194447],[81.7122933,16.5193335]]}},{"type":"Feature","properties":{"bus":"1","source_id":"822914324-44"},"geometry":{"type":"LineString","coordinates":[[81.7122933,16.5193335],[81.7122685,16.519275]]}},{"type":"Feature","properties":{"bus":"1","source_id":"822914324-47"},"geometry":{"type":"LineString","coordinates":[[81.7120908,16.5192319],[81.7116724,16.5192692]]}},{"type":"Feature","properties":{"bus":"1","source_id":"822914324-45"},"geometry":{"type":"LineString","coordinates":[[81.7122685,16.519275],[81.7122357,16.5192126]]}},{"type":"Feature","properties":{"bus":"1","source_id":"822914324-46"},"geometry":{"type":"LineString","coordinates":[[81.7122357,16.5192126],[81.7120908,16.5192319]]}},{"type":"Feature","properties":{"bus":"1","source_id":"822914324-48"},"geometry":{"type":"LineString","coordinates":[[81.7116724,16.5192692],[81.711258,16.5193965]]}},{"type":"Feature","properties":{"bus":"1","source_id":"822914324-49"},"geometry":{"type":"LineString","coordinates":[[81.711258,16.5193965],[81.7108087,16.5195083]]}},{"type":"Feature","properties":{"bus":"1","source_id":"822914324-50"},"geometry":{"type":"LineString","coordinates":[[81.7108087,16.5195083],[81.7102822,16.5196071]]}},{"type":"Feature","properties":{"bus":"1","source_id":"822914324-51"},"geometry":{"type":"LineString","coordinates":[[81.7102822,16.5196071],[81.7096357,16.5197761]]}},{"type":"Feature","properties":{"bus":"1","source_id":"822914324-52"},"geometry":{"type":"LineString","coordinates":[[81.7096357,16.5197761],[81.7089413,16.5199576]]}},{"type":"Feature","properties":{"bus":"1","source_id":"822914324-53"},"geometry":{"type":"LineString","coordinates":[[81.7089413,16.5199576],[81.7087207,16.5200153]]}},{"type":"Feature","properties":{"bus":"1","source_id":"822914324-54"},"geometry":{"type":"LineString","coordinates":[[81.7087207,16.5200153],[81.7082945,16.5201061]]}},{"type":"Feature","properties":{"bus":"1","source_id":"822914324-55"},"geometry":{"type":"LineString","coordinates":[[81.7082945,16.5201061],[81.7079776,16.5201147]]}},{"type":"Feature","properties":{"bus":"1","source_id":"822914324-56"},"geometry":{"type":"LineString","coordinates":[[81.7079776,16.5201147],[81.7077696,16.5201203]]}},{"type":"Feature","properties":{"bus":"1","source_id":"822914324-57"},"geometry":{"type":"LineString","coordinates":[[81.7077696,16.5201203],[81.707518,16.5201064]]}},{"type":"Feature","properties":{"bus":"1","source_id":"822914324-58"},"geometry":{"type":"LineString","coordinates":[[81.707518,16.5201064],[81.7072953,16.5200941]]}},{"type":"Feature","properties":{"bus":"1","source_id":"822914324-59"},"geometry":{"type":"LineString","coordinates":[[81.7072953,16.5200941],[81.7068273,16.5200308]]}},{"type":"Feature","properties":{"bus":"1","source_id":"822914324-60"},"geometry":{"type":"LineString","coordinates":[[81.7068273,16.5200308],[81.706534,16.519933]]}},{"type":"Feature","properties":{"bus":"1","source_id":"822914324-61"},"geometry":{"type":"LineString","coordinates":[[81.706534,16.519933],[81.7060702,16.5197677]]}},{"type":"Feature","properties":{"bus":"1","source_id":"822914324-62"},"geometry":{"type":"LineString","coordinates":[[81.7060702,16.5197677],[81.7057637,16.519577]]}},{"type":"Feature","properties":{"bus":"1","source_id":"822914324-63"},"geometry":{"type":"LineString","coordinates":[[81.7057637,16.519577],[81.7053327,16.5193438]]}},{"type":"Feature","properties":{"bus":"1","source_id":"822914324-64"},"geometry":{"type":"LineString","coordinates":[[81.7053327,16.5193438],[81.7052219,16.5192838]]}}]}