{"type":"FeatureCollection","features":[{"type":"Feature","properties":{"bus":"2","source_id":"103406579-0"},"geometry":{"type":"LineString","coordinates":[[81.7195403,16.509801],[81.7200971,16.5116557]]}},{"type":"Feature","properties":{"bus":"2","source_id":"103406579-1"},"geometry":{"type":"LineString","coordinates":[[81.7200971,16.5116557],[81.7205193,16.5133047]]}},{"type":"Feature","properties":{"bus":"2","source_id":"103406579-2"},"geometry":{"type":"LineString","coordinates":[[81.7205193,16.5133047],[81.7206556,16.5135746]]}},{"type":"Feature","properties":{"bus":"2","source_id":"103406579-3"},"geometry":{"type":"LineString","coordinates":[[81.7206556,16.5135746],[81.7207756,16.513812]]}},{"type":"Feature","properties":{"bus":"2","source_id":"103406579-4"},"geometry":{"type":"LineString","coordinates":[[81.7207756,16.513812],[81.7207959,16.5138522]]}},{"type":"Feature","properties":{"bus":"2","source_id":"103406579-5"},"geometry":{"type":"LineString","coordinates":[[81.7207959,16.5138522],[81.7208051,16.5138674]]}},{"type":"Feature","properties":{"bus":"2","source_id":"103406579-6"},"geometry":{"type":"LineString","coordinates":[[81.7208051,16.5138674],[81.7212639,16.5146318]]}},{"type":"Feature","properties":{"bus":"2","source_id":"103406579-7"},"geometry":{"type":"LineString","coordinates":[[81.7212639,16.5146318],[81.7215255,16.515012]]}},{"type":"Feature","properties":{"bus":"2","source_id":"103406579-8"},"geometry":{"type":"LineString","coordinates":[[81.7215255,16.515012],[81.7218133,16.5153061]]}},{"type":"Feature","properties":{"bus":"2","source_id":"103406579-9"},"geometry":{"type":"LineString","coordinates":[[81.7218133,16.5153061],[81.722503,16.5158201]]}},{"type":"Feature","properties":{"bus":"2","source_id":"103406579-10"},"geometry":{"type":"LineString","coordinates":[[81.722503,16.5158201],[81.7231829,16.5162444]]}}]}