{"type":"FeatureCollection","features":[{"type":"Feature","properties":{"bus":"3","source_id":"238763101-11"},"geometry":{"type":"LineString","coordinates":[[81.6628931,16.4271775],[81.6637688,16.4274367]]}},{"type":"Feature","properties":{"bus":"3","source_id":"238763101-12"},"geometry":{"type":"LineString","coordinates":[[81.6637688,16.4274367],[81.6650347,16.4279785]]}},{"type":"Feature","properties":{"bus":"3","source_id":"238763101-13"},"geometry":{"type":"LineString","coordinates":[[81.6650347,16.4279785],[81.66651,16.4285643]]}},{"type":"Feature","properties":{"bus":"3","source_id":"238763101-14"},"geometry":{"type":"LineString","coordinates":[[81.66651,16.4285643],[81.6680875,16.4291376]]}},{"type":"Feature","properties":{"bus":"3","source_id":"238763101-15"},"geometry":{"type":"LineString","coordinates":[[81.6680875,16.4291376],[81.6694319,16.4296215]]}},{"type":"Feature","properties":{"bus":"3","source_id":"238763101-16"},"geometry":{"type":"LineString","coordinates":[[81.6694319,16.4296215],[81.6701466,16.4298332]]}},{"type":"Feature","properties":{"bus":"3","source_id":"238763101-17"},"geometry":{"type":"LineString","coordinates":[[81.6701466,16.4298332],[81.6726063,16.430629]]}},{"type":"Feature","properties":{"bus":"3","source_id":"238763101-18"},"geometry":{"type":"LineString","coordinates":[[81.6726063,16.430629],[81.6749059,16.4312828]]}},{"type":"Feature","properties":{"bus":"3","source_id":"238763101-10"},"geometry":{"type":"LineString","coordinates":[[81.6625008,16.4270614],[81.6628931,16.4271775]]}},{"type":"Feature","properties":{"bus":"3","source_id":"238763101-8"},"geometry":{"type":"LineString","coordinates":[[81.661225,16.4267451],[81.6624188,16.4270371]]}},{"type":"Feature","properties":{"bus":"3","source_id":"238763101-9"},"geometry":{"type":"LineString","coordinates":[[81.6624188,16.4270371],[81.6625008,16.4270614]]}},{"type":"Feature","properties":{"bus":"3","source_id":"238763101-7"},"geometry":{"type":"LineString","coordinates":[[81.6594303,16.4262878],[81.661225,16.4267451]]}},{"type":"Feature","properties":{"bus":"3","source_id":"238763101-6"},"geometry":{"type":"LineString","coordinates":[[81.6583219,16.4259472],[81.6594303,16.4262878]]}},{"type":"Feature","properties":{"bus":"3","source_id":"238763101-5"},"geometry":{"type":"LineString","coordinates":[[81.6564049,16.4253581],[81.6583219,16.4259472]]}},{"type":"Feature","properties":{"bus":"3","source_id":"238763101-4"},"geometry":{"type":"LineString","coordinates":[[81.6555044,16.4250813],[81.6564049,16.4253581]]}},{"type":"Feature","properties":{"bus":"3","source_id":"238763101-3"},"geometry":{"type":"LineString","coordinates":[[81.6549375,16.424897],[81.6555044,16.4250813]]}},{"type":"Feature","properties":{"bus":"3","source_id":"238763101-2"},"geometry":{"type":"LineString","coordinates":[[81.6538139,16.4245318],[81.6549375,16.424897]]}},{"type":"Feature","properties":{"bus":"3","source_id":"238763101-0"},"geometry":{"type":"LineString","coordinates":[[81.6520045,16.4241927],[81.6530027,16.4243478]]}},{"type":"Feature","properties":{"bus":"3","source_id":"238763101-1"},"geometry":{"type":"LineString","coordinates":[[81.6530027,16.4243478],[81.6538139,16.4245318]]}}]}